[{"CCSDS_OMM_VERS":"3.0","COMMENT":"GENERATED VIA SPACE-TRACK.ORG API","CREATION_DATE":"2025-04-09T17:16:24","ORIGINATOR":"18 SPCS","OBJECT_NAME":"FENGYUN 1C DEB","OBJECT_ID":"1999-025CUV","CENTER_NAME":"EARTH","REF_FRAME":"TEME","TIME_SYSTEM":"UTC","MEAN_ELEMENT_THEORY":"SGP4","EPOCH":"2022-08-17T14:43:16.991904","MEAN_MOTION":"14.67505836","ECCENTRICITY":"0.00993870","INCLINATION":"99.1523","RA_OF_ASC_NODE":"6.1462","ARG_OF_PERICENTER":"153.5283","MEAN_ANOMALY":"207.1044","EPHEMERIS_TYPE":"0","CLASSIFICATION_TYPE":"U","NORAD_CAT_ID":"32199","ELEMENT_SET_NO":"999","REV_AT_EPOCH":"79377","BSTAR":"0.00235700000000","MEAN_MOTION_DOT":"0.00014354","MEAN_MOTION_DDOT":"0.0000000000000","SEMIMAJOR_AXIS":"7047.179","PERIOD":"98.126","APOAPSIS":"739.083","PERIAPSIS":"599.004","OBJECT_TYPE":"DEBRIS","RCS_SIZE":"SMALL","COUNTRY_CODE":"PRC","LAUNCH_DATE":"1999-05-10","SITE":"TSC","DECAY_DATE":"2023-12-16","FILE":"4696386","GP_ID":"285195988","TLE_LINE0":"0 FENGYUN 1C DEB","TLE_LINE1":"1 32199U 99025CUV 22229.61339111  .00014354  00000-0  23570-2 0  9997","TLE_LINE2":"2 32199  99.1523   6.1462 0099387 153.5283 207.1044 14.67505836793773"},{"CCSDS_OMM_VERS":"3.0","COMMENT":"GENERATED VIA SPACE-TRACK.ORG API","CREATION_DATE":"2026-03-28T17:06:41","ORIGINATOR":"18 SPCS","OBJECT_NAME":"FENGYUN 1C DEB","OBJECT_ID":"1999-025CUW","CENTER_NAME":"EARTH","REF_FRAME":"TEME","TIME_SYSTEM":"UTC","MEAN_ELEMENT_THEORY":"SGP4","EPOCH":"2026-03-28T09:00:40.663296","MEAN_MOTION":"14.16144053","ECCENTRICITY":"0.00386580","INCLINATION":"98.7767","RA_OF_ASC_NODE":"139.8810","ARG_OF_PERICENTER":"350.8098","MEAN_ANOMALY":"9.2364","EPHEMERIS_TYPE":"0","CLASSIFICATION_TYPE":"U","NORAD_CAT_ID":"32200","ELEMENT_SET_NO":"999","REV_AT_EPOCH":"95858","BSTAR":"0.00088835000000","MEAN_MOTION_DOT":"0.00001726","MEAN_MOTION_DDOT":"0.0000000000000","SEMIMAJOR_AXIS":"7216.560","PERIOD":"101.685","APOAPSIS":"866.323","PERIAPSIS":"810.527","OBJECT_TYPE":"DEBRIS","RCS_SIZE":"SMALL","COUNTRY_CODE":"PRC","LAUNCH_DATE":"1999-05-10","SITE":"TSC","DECAY_DATE":null,"FILE":"5104330","GP_ID":"317439407","TLE_LINE0":"0 FENGYUN 1C DEB","TLE_LINE1":"1 32200U 99025CUW 26087.37547064  .00001726  00000-0  88835-3 0  9992","TLE_LINE2":"2 32200  98.7767 139.8810 0038658 350.8098   9.2364 14.16144053958584"},{"CCSDS_OMM_VERS":"3.0","COMMENT":"GENERATED VIA SPACE-TRACK.ORG API","CREATION_DATE":"2025-04-09T17:16:24","ORIGINATOR":"18 SPCS","OBJECT_NAME":"FENGYUN 1C DEB","OBJECT_ID":"1999-025CUX","CENTER_NAME":"EARTH","REF_FRAME":"TEME","TIME_SYSTEM":"UTC","MEAN_ELEMENT_THEORY":"SGP4","EPOCH":"2020-12-05T21:19:56.162208","MEAN_MOTION":"14.05623076","ECCENTRICITY":"0.01457100","INCLINATION":"99.1271","RA_OF_ASC_NODE":"18.6040","ARG_OF_PERICENTER":"260.8733","MEAN_ANOMALY":"97.5924","EPHEMERIS_TYPE":"0","CLASSIFICATION_TYPE":"U","NORAD_CAT_ID":"32201","ELEMENT_SET_NO":"999","REV_AT_EPOCH":"70335","BSTAR":"0.00058633000000","MEAN_MOTION_DOT":"0.00001004","MEAN_MOTION_DDOT":"0.0000000000000","SEMIMAJOR_AXIS":"7252.525","PERIOD":"102.446","APOAPSIS":"980.067","PERIAPSIS":"768.714","OBJECT_TYPE":"DEBRIS","RCS_SIZE":"SMALL","COUNTRY_CODE":"PRC","LAUNCH_DATE":"1999-05-10","SITE":"TSC","DECAY_DATE":null,"FILE":"4696185","GP_ID":"285197398","TLE_LINE0":"0 FENGYUN 1C DEB","TLE_LINE1":"1 32201U 99025CUX 20340.88884447  .00001004  00000-0  58633-3 0  9996","TLE_LINE2":"2 32201  99.1271  18.6040 0145710 260.8733  97.5924 14.05623076703353"},{"CCSDS_OMM_VERS":"3.0","COMMENT":"GENERATED VIA SPACE-TRACK.ORG API","CREATION_DATE":"2024-06-05T18:02:20","ORIGINATOR":"18 SPCS","OBJECT_NAME":"FENGYUN 1C DEB","OBJECT_ID":"1999-025CUY","CENTER_NAME":"EARTH","REF_FRAME":"TEME","TIME_SYSTEM":"UTC","MEAN_ELEMENT_THEORY":"SGP4","EPOCH":"2024-05-10T07:15:08.806464","MEAN_MOTION":"14.67535694","ECCENTRICITY":"0.00540470","INCLINATION":"98.4063","RA_OF_ASC_NODE":"159.3936","ARG_OF_PERICENTER":"30.4085","MEAN_ANOMALY":"330.0235","EPHEMERIS_TYPE":"0","CLASSIFICATION_TYPE":"U","NORAD_CAT_ID":"32202","ELEMENT_SET_NO":"999","REV_AT_EPOCH":"607","BSTAR":"0.02483900000000","MEAN_MOTION_DOT":"0.00146957","MEAN_MOTION_DDOT":"0.0000000000000","SEMIMAJOR_AXIS":"7047.083","PERIOD":"98.124","APOAPSIS":"707.035","PERIAPSIS":"630.861","OBJECT_TYPE":"DEBRIS","RCS_SIZE":"SMALL","COUNTRY_CODE":"PRC","LAUNCH_DATE":"1999-05-10","SITE":"TSC","DECAY_DATE":"2024-09-09","FILE":"4337216","GP_ID":"258849408","TLE_LINE0":"0 FENGYUN 1C DEB","TLE_LINE1":"1 32202U 99025CUY 24131.30218526  .00146957  00000-0  24839-1 0  9991","TLE_LINE2":"2 32202  98.4063 159.3936 0054047  30.4085 330.0235 14.67535694  6076"},{"CCSDS_OMM_VERS":"3.0","COMMENT":"GENERATED VIA SPACE-TRACK.ORG API","CREATION_DATE":"2026-03-27T22:26:21","ORIGINATOR":"18 SPCS","OBJECT_NAME":"FENGYUN 1C DEB","OBJECT_ID":"1999-025CUZ","CENTER_NAME":"EARTH","REF_FRAME":"TEME","TIME_SYSTEM":"UTC","MEAN_ELEMENT_THEORY":"SGP4","EPOCH":"2026-03-27T10:04:14.157984","MEAN_MOTION":"15.50609288","ECCENTRICITY":"0.01197860","INCLINATION":"97.0024","RA_OF_ASC_NODE":"339.5130","ARG_OF_PERICENTER":"68.0209","MEAN_ANOMALY":"293.3722","EPHEMERIS_TYPE":"0","CLASSIFICATION_TYPE":"U","NORAD_CAT_ID":"32203","ELEMENT_SET_NO":"999","REV_AT_EPOCH":"76715","BSTAR":"0.00039466000000","MEAN_MOTION_DOT":"0.00030487","MEAN_MOTION_DDOT":"0.0000000000000","SEMIMAJOR_AXIS":"6793.083","PERIOD":"92.867","APOAPSIS":"496.320","PERIAPSIS":"333.576","OBJECT_TYPE":"DEBRIS","RCS_SIZE":"SMALL","COUNTRY_CODE":"PRC","LAUNCH_DATE":"1999-05-10","SITE":"TSC","DECAY_DATE":null,"FILE":"5101517","GP_ID":"317305373","TLE_LINE0":"0 FENGYUN 1C DEB","TLE_LINE1":"1 32203U 99025CUZ 26086.41960831  .00030487  00000-0  39466-3 0  9992","TLE_LINE2":"2 32203  97.0024 339.5130 0119786  68.0209 293.3722 15.50609288767153"},{"CCSDS_OMM_VERS":"3.0","COMMENT":"GENERATED VIA SPACE-TRACK.ORG API","CREATION_DATE":"2022-09-30T17:45:27","ORIGINATOR":"18 SPCS","OBJECT_NAME":"FENGYUN 1C DEB","OBJECT_ID":"1999-025CVA","CENTER_NAME":"EARTH","REF_FRAME":"TEME","TIME_SYSTEM":"UTC","MEAN_ELEMENT_THEORY":"SGP4","EPOCH":"2022-09-30T02:20:33.419328","MEAN_MOTION":"14.69902799","ECCENTRICITY":"0.00898560","INCLINATION":"99.3325","RA_OF_ASC_NODE":"325.9422","ARG_OF_PERICENTER":"170.5489","MEAN_ANOMALY":"189.7430","EPHEMERIS_TYPE":"0","CLASSIFICATION_TYPE":"U","NORAD_CAT_ID":"32204","ELEMENT_SET_NO":"999","REV_AT_EPOCH":"53774","BSTAR":"0.00814570000000","MEAN_MOTION_DOT":"0.00052172","MEAN_MOTION_DDOT":"0.0000000000000","SEMIMAJOR_AXIS":"7039.515","PERIOD":"97.966","APOAPSIS":"724.635","PERIAPSIS":"598.126","OBJECT_TYPE":"DEBRIS","RCS_SIZE":"SMALL","COUNTRY_CODE":"PRC","LAUNCH_DATE":"1999-05-10","SITE":"TSC","DECAY_DATE":"2023-12-28","FILE":"3587752","GP_ID":"213864156","TLE_LINE0":"0 FENGYUN 1C DEB","TLE_LINE1":"1 32204U 99025CVA 22273.09760902  .00052172  00000-0  81457-2 0  9999","TLE_LINE2":"2 32204  99.3325 325.9422 0089856 170.5489 189.7430 14.69902799537745"},{"CCSDS_OMM_VERS":"3.0","COMMENT":"GENERATED VIA SPACE-TRACK.ORG API","CREATION_DATE":"2026-03-28T04:18:04","ORIGINATOR":"18 SPCS","OBJECT_NAME":"FENGYUN 1C DEB","OBJECT_ID":"1999-025CVB","CENTER_NAME":"EARTH","REF_FRAME":"TEME","TIME_SYSTEM":"UTC","MEAN_ELEMENT_THEORY":"SGP4","EPOCH":"2026-03-27T18:51:50.016384","MEAN_MOTION":"14.13989089","ECCENTRICITY":"0.00108061","INCLINATION":"98.6809","RA_OF_ASC_NODE":"92.6492","ARG_OF_PERICENTER":"356.4133","MEAN_ANOMALY":"183.8514","EPHEMERIS_TYPE":"0","CLASSIFICATION_TYPE":"U","NORAD_CAT_ID":"32205","ELEMENT_SET_NO":"999","REV_AT_EPOCH":"95982","BSTAR":"0.00015414371000","MEAN_MOTION_DOT":"0.00000250","MEAN_MOTION_DDOT":"0.0000000000000","SEMIMAJOR_AXIS":"7223.890","PERIOD":"101.840","APOAPSIS":"853.561","PERIAPSIS":"837.949","OBJECT_TYPE":"DEBRIS","RCS_SIZE":"SMALL","COUNTRY_CODE":"PRC","LAUNCH_DATE":"1999-05-10","SITE":"TSC","DECAY_DATE":null,"FILE":"5102610","GP_ID":"317341604","TLE_LINE0":"0 FENGYUN 1C DEB","TLE_LINE1":"1 32205U 99025CVB 26086.78599556  .00000250  00000-0  15414-3 0  9998","TLE_LINE2":"2 32205  98.6809  92.6492 0010806 356.4133 183.8514 14.13989089959821"},{"CCSDS_OMM_VERS":"3.0","COMMENT":"GENERATED VIA SPACE-TRACK.ORG API","CREATION_DATE":"2015-01-27T16:21:34","ORIGINATOR":"18 SPCS","OBJECT_NAME":"FENGYUN 1C DEB","OBJECT_ID":"1999-025CVC","CENTER_NAME":"EARTH","REF_FRAME":"TEME","TIME_SYSTEM":"UTC","MEAN_ELEMENT_THEORY":"SGP4","EPOCH":"2014-08-03T04:41:06.417887","MEAN_MOTION":"15.26186275","ECCENTRICITY":"0.00472910","INCLINATION":"97.6903","RA_OF_ASC_NODE":"353.3413","ARG_OF_PERICENTER":"166.2622","MEAN_ANOMALY":"193.9915","EPHEMERIS_TYPE":"0","CLASSIFICATION_TYPE":"U","NORAD_CAT_ID":"32206","ELEMENT_SET_NO":"999","REV_AT_EPOCH":"37109","BSTAR":"0.00601910000000","MEAN_MOTION_DOT":"0.00163866","MEAN_MOTION_DDOT":"0.0000000000000","SEMIMAJOR_AXIS":"6865.362","PERIOD":"94.352","APOAPSIS":"519.694","PERIAPSIS":"454.760","OBJECT_TYPE":"DEBRIS","RCS_SIZE":"SMALL","COUNTRY_CODE":"PRC","LAUNCH_DATE":"1999-05-10","SITE":"TSC","DECAY_DATE":"2014-11-13","FILE":"1817308","GP_ID":"98195525","TLE_LINE0":"0 FENGYUN 1C DEB","TLE_LINE1":"1 32206U 99025CVC 14215.19521317  .00163866  00000-0  60191-2 0  9999","TLE_LINE2":"2 32206 097.6903 353.3413 0047291 166.2622 193.9915 15.26186275371099"}]